ONEWEB-0029             
1 45445U 20020X   24338.84864193 -.00000489  00000+0 -14152-2 0  9996
2 45445  87.8893 132.7097 0001597  89.0513 271.0798 13.11418757229212
ONEWEB-0068             
1 45446U 20020Y   24338.82406304  .00000209  00000+0  55386-3 0  9994
2 45446  87.8886 132.7000 0001550  88.5966 271.5340 13.11413685229150
ONEWEB-0046             
1 45447U 20020Z   24338.82151638  .00000295  00000+0  79779-3 0  9999
2 45447  87.8887 132.7124 0001772  96.8742 263.2587 13.11416884229165
ONEWEB-0063             
1 45448U 20020AA  24338.85033961 -.00000550  00000+0 -15885-2 0  9994
2 45448  87.8889 132.7065 0001640 102.1274 258.0037 13.11418444229253
ONEWEB-0019             
1 45449U 20020AB  24338.82492215  .00000157  00000+0  40589-3 0  9994
2 45449  87.8890 132.7212 0001339  99.1683 260.9596 13.11415070229090
ONEWEB-0094             
1 45450U 20020AC  24338.79640484  .00000019  00000+0  16709-4 0  9990
2 45450  87.9091 117.4755 0001623  96.6036 263.5280 13.17649974232516
ONEWEB-0087             
1 45451U 20020AD  24338.86037561 -.00000313  00000+0 -91868-3 0  9992
2 45451  87.8882 132.6683 0001674  87.2670 272.8649 13.11418330229140
ONEWEB-0082             
1 45452U 20020AE  24338.85710191 -.00000391  00000+0 -11397-2 0  9993
2 45452  87.8890 132.6808 0001439  88.3268 271.8024 13.11415249229235
ONEWEB-0050             
1 45453U 20020AF  24338.73374784  .00006128  00000+0  59448-3 0  9997
2 45453  88.0028 345.1556 0003679 137.2040 222.9477 14.92529903256886
ONEWEB-0034             
1 45454U 20020AG  24338.80287559  .00000447  00000+0  12264-2 0  9991
2 45454  87.8888 132.7108 0001463  93.7189 266.4106 13.11418290229147
ONEWEB-0060             
1 45455U 20020AH  24338.84537723 -.00000614  00000+0 -17679-2 0  9990
2 45455  87.8891 132.7231 0001557  99.6543 260.4761 13.11419307229109
ONEWEB-0086             
1 45456U 20020AJ  24338.82829989  .00000001  00000+0 -31844-4 0  9998
2 45456  87.8885 132.7057 0001738  83.1289 277.0036 13.11414190229165
ONEWEB-0088             
1 45457U 20020AK  24338.80624312  .00000561  00000+0  15465-2 0  9999
2 45457  87.8882 132.6680 0001577  92.1756 267.9552 13.11420245229095
ONEWEB-0102             
1 47258U 20100A   24338.79162660  .00000298  00000+0  79199-3 0  9992
2 47258  87.8877 102.2770 0001410 105.3831 254.7453 13.12443590191226
ONEWEB-0109             
1 47259U 20100B   24338.79971619  .00000437  00000+0  11779-2 0  9999
2 47259  87.8876 102.2418 0001371 104.3484 255.7797 13.12445302191050
ONEWEB-0110             
1 47260U 20100C   24338.82568191 -.00000144  00000+0 -43524-3 0  9993
2 47260  87.8872 102.2323 0001386  98.8217 261.3069 13.12441408191227
ONEWEB-0111             
1 47261U 20100D   24338.85649307 -.00000057  00000+0 -19433-3 0  9991
2 47261  87.8880 102.2309 0001463 102.5092 257.6200 13.12443208191068
ONEWEB-0114             
1 47262U 20100E   24338.81108041  .00000349  00000+0  93491-3 0  9991
2 47262  87.8872 102.2482 0001370 114.1998 245.9274 13.12442365191012
ONEWEB-0117             
1 47263U 20100F   24338.80296617  .00002806  00000+0  77607-2 0  9998
2 47263  87.8908 102.2368 0002302 104.2035 255.9349 13.12457369191029
ONEWEB-0118             
1 47264U 20100G   24338.83538500 -.00001307  00000+0 -36688-2 0  9993
2 47264  87.8880 102.2287 0001605 114.9988 245.1308 13.12448481191222
ONEWEB-0119             
1 47265U 20100H   24338.86299895  .00000172  00000+0  44396-3 0  9991
2 47265  87.8877 102.2621 0001463 100.4346 259.6948 13.12444471191204
ONEWEB-0120             
1 47266U 20100J   24338.80961261  .00000369  00000+0  99003-3 0  9992
2 47266  87.8878 102.2644 0001422 109.5444 250.5839 13.12441643191224
ONEWEB-0121             
1 47267U 20100K   24338.79812090  .00000419  00000+0  11302-2 0  9997
2 47267  87.8873 102.2489 0001458  96.1981 263.9314 13.12443251191136
ONEWEB-0122             
1 47268U 20100L   24338.79309998  .00000352  00000+0  94320-3 0  9994
2 47268  87.8872 102.2550 0001374 100.6971 259.4312 13.12442182191042
ONEWEB-0123             
1 47269U 20100M   24338.78838523  .00000219  00000+0  57227-3 0  9992
2 47269  87.8876 102.2756 0001559 104.1881 255.9421 13.12445653191182
ONEWEB-0124             
1 47270U 20100N   24338.62453958 -.00000135  00000+0 -41130-3 0  9997
2 47270  87.8874 102.3053 0001607  93.7867 266.3445 13.12442249191049
ONEWEB-0125             
1 47271U 20100P   24338.83054056 -.00000240  00000+0 -70188-3 0  9999
2 47271  87.8880 102.2252 0001831 101.9297 258.2037 13.12443702191137
ONEWEB-0126             
1 47272U 20100Q   24338.85568481 -.00000081  00000+0 -26008-3 0  9999
2 47272  87.8873 102.2197 0001468 105.9901 254.1390 13.12442685191204
ONEWEB-0127             
1 47273U 20100R   24338.81755634  .00000088  00000+0  20944-3 0  9992
2 47273  87.8876 102.2614 0001375 105.3762 254.7518 13.12439774191223
ONEWEB-0128             
1 47274U 20100S   24338.84027722 -.00000406  00000+0 -11634-2 0  9997
2 47274  87.8887 102.2710 0001312  94.3526 265.7752 13.12443532191240
ONEWEB-0129             
1 47275U 20100T   24338.81918648  .00000005  00000+0 -20291-4 0  9996
2 47275  87.8879 102.2312 0001303 157.2478 202.8708 13.12443337191173
ONEWEB-0130             
1 47276U 20100U   24338.84676129 -.00000293  00000+0 -84965-3 0  9992
2 47276  87.8874 102.2307 0001353 102.1406 257.9874 13.12442891191144
ONEWEB-0131             
1 47277U 20100V   24338.84351707 -.00000366  00000+0 -10518-2 0  9998
2 47277  87.8878 102.2510 0001434  98.6260 261.5031 13.12442457191180
ONEWEB-0132             
1 47278U 20100W   24338.79647943  .00000492  00000+0  13324-2 0  9999
2 47278  87.8878 102.2623 0001668  94.0492 266.0827 13.12442169191073
ONEWEB-0133             
1 47279U 20100X   24338.81269416  .00000328  00000+0  87655-3 0  9995
2 47279  87.8873 102.2480 0001429  97.3418 262.7873 13.12444022191231
ONEWEB-0134             
1 47280U 20100Y   24338.85809737 -.00000213  00000+0 -62860-3 0  9993
2 47280  87.8869 102.2250 0001178 100.6245 259.5017 13.12445506191210
ONEWEB-0135             
1 47281U 20100Z   24338.82890464 -.00000250  00000+0 -73035-3 0  9995
2 47281  87.8879 102.2567 0001110  87.2512 272.8744 13.12440157191230
ONEWEB-0136             
1 47282U 20100AA  24338.84836580 -.00000663  00000+0 -18788-2 0  9998
2 47282  87.8877 102.2201 0001016 104.7823 255.3419 13.12442742191168
ONEWEB-0137             
1 47283U 20100AB  24338.80620557  .00000416  00000+0  11204-2 0  9990
2 47283  87.8870 102.2452 0001590 106.7683 253.3620 13.12444467191060
ONEWEB-0138             
1 47284U 20100AC  24338.86136030  .00000113  00000+0  27753-3 0  9996
2 47284  87.8871 102.2464 0001400 103.9369 256.1915 13.12443130191159
ONEWEB-0139             
1 47285U 20100AD  24338.82418173 -.00000115  00000+0 -35435-3 0  9994
2 47285  87.8877 102.2327 0001537 102.8945 257.2355 13.12439550191222
ONEWEB-0140             
1 47286U 20100AE  24338.85488268 -.00000141  00000+0 -42713-3 0  9996
2 47286  87.8874 102.2238 0001405 101.1746 258.9541 13.12445107191192
ONEWEB-0141             
1 47287U 20100AF  24338.82392058 -.00000120  00000+0 -36997-3 0  9999
2 47287  87.8876 102.2440 0001651 105.2458 254.8853 13.12441854191172
ONEWEB-0142             
1 47288U 20100AG  24338.79242144  .00000350  00000+0  93740-3 0  9998
2 47288  87.8875 102.2312 0001480 112.3462 247.7823 13.12446430191166
ONEWEB-0143             
1 47289U 20100AH  24338.82242479 -.00000052  00000+0 -18063-3 0  9990
2 47289  87.8875 102.2474 0001500 101.9463 258.1834 13.12443617191144
ONEWEB-0144             
1 47290U 20100AJ  24338.79487376  .00000405  00000+0  10896-2 0  9990
2 47290  87.8872 102.2356 0001305 113.4771 246.6495 13.12444386191065
ONEWEB-0145             
1 47291U 20100AK  24338.84189266 -.00000358  00000+0 -10292-2 0  9993
2 47291  87.8875 102.2511 0001364 105.9526 254.1753 13.12442307191265
ONEWEB-0146             
1 47292U 20100AL  24338.83865223 -.00000333  00000+0 -96132-3 0  9998
2 47292  87.8883 102.2367 0001724  89.3669 270.7657 13.12442194191178
ONEWEB-0147             
1 47293U 20100AM  24338.80460794  .00000431  00000+0  11623-2 0  9998
2 47293  87.8872 102.2308 0001174  97.3628 262.7634 13.12442610191062
ONEWEB-0115             
1 48042U 21025A   24338.81300825  .00000001  00000+0 -31348-4 0  9999
2 48042  87.8923  71.6824 0001666 101.2161 258.9155 13.13472805180037
ONEWEB-0152             
1 48043U 21025B   24338.74953633 -.00000240  00000+0 -69148-3 0  9997
2 48043  87.8933  71.6992 0001607 100.6545 259.4765 13.13468965179986
ONEWEB-0153             
1 48044U 21025C   24338.80349596  .00000226  00000+0  58477-3 0  9997
2 48044  87.8931  71.6810 0001673 105.8475 254.2839 13.13468408179983
ONEWEB-0154             
1 48045U 21025D   24338.80031961  .00000345  00000+0  90963-3 0  9990
2 48045  87.8928  71.6877 0001596 101.1861 258.9448 13.13468627179941
ONEWEB-0116             
1 48046U 21025E   24338.76539094 -.00000211  00000+0 -61296-3 0  9997
2 48046  87.8931  71.6688 0001719  98.4367 261.6957 13.13467230180084
ONEWEB-0150             
1 48047U 21025F   24338.81619139 -.00000069  00000+0 -22511-3 0  9991
2 48047  87.8925  71.6676 0001751 108.5986 251.5334 13.13468538179987
ONEWEB-0107             
1 48048U 21025G   24338.81776432 -.00000097  00000+0 -30097-3 0  9991
2 48048  87.8926  71.6651 0001499 118.4371 241.6910 13.13467187179966
ONEWEB-0101             
1 48049U 21025H   24338.78127887  .00000213  00000+0  54844-3 0  9996
2 48049  87.8933  71.6989 0001547 105.7939 254.3360 13.13469474179930
ONEWEB-0113             
1 48050U 21025J   24338.75905621 -.00000329  00000+0 -93691-3 0  9998
2 48050  87.8934  71.6836 0001739 100.3280 259.8045 13.13468781180018
ONEWEB-0112             
1 48051U 21025K   24338.82253713 -.00000251  00000+0 -72216-3 0  9999
2 48051  87.8927  71.6613 0001713 105.3337 254.7982 13.13470640180037
